{
  "norad_id": 51465,
  "name": "STARLINK-3401",
  "history": [
    {
      "epoch": "2026-04-16T17:03:27.268128Z",
      "apogee_km": 540.7621421470385,
      "perigee_km": 538.7476520266073,
      "latitude_deg": 2.765639836649354e-05,
      "longitude_deg": 7.719474915035668,
      "height_km": 540.5261855611462,
      "semi_major_axis_km": 6917.891897086823,
      "eccentricity": 0.0001456,
      "inclination_deg": 53.2164,
      "raan_deg": 108.4376,
      "arg_perigee_deg": 82.9176,
      "mean_anomaly_deg": 277.1982,
      "mean_motion_rev_day": 15.08836235
    },
    {
      "epoch": "2026-04-17T16:54:14.274432Z",
      "apogee_km": 540.7407393556368,
      "perigee_km": 538.7504645310582,
      "latitude_deg": -1.2023794435325169e-05,
      "longitude_deg": 4.583750708596885,
      "height_km": 540.4956323590769,
      "semi_major_axis_km": 6917.882601943347,
      "eccentricity": 0.00014385,
      "inclination_deg": 53.2164,
      "raan_deg": 103.9771,
      "arg_perigee_deg": 81.5934,
      "mean_anomaly_deg": 278.5221,
      "mean_motion_rev_day": 15.08839276
    },
    {
      "epoch": "2026-04-18T05:37:19.331328Z",
      "apogee_km": 540.7223692186408,
      "perigee_km": 538.7600438865693,
      "latitude_deg": -1.642754483643201e-05,
      "longitude_deg": 170.91106474330624,
      "height_km": 540.507887913542,
      "semi_major_axis_km": 6917.878206552605,
      "eccentricity": 0.00014183,
      "inclination_deg": 53.2165,
      "raan_deg": 101.5978,
      "arg_perigee_deg": 82.4527,
      "mean_anomaly_deg": 277.6626,
      "mean_motion_rev_day": 15.08840714
    },
    {
      "epoch": "2026-04-19T16:35:47.969088Z",
      "apogee_km": 540.7555481753261,
      "perigee_km": 538.7078590390574,
      "latitude_deg": 4.411872565714973e-05,
      "longitude_deg": -1.686871784296557,
      "height_km": 540.5039021635049,
      "semi_major_axis_km": 6917.8687036071915,
      "eccentricity": 0.000148,
      "inclination_deg": 53.2166,
      "raan_deg": 95.0555,
      "arg_perigee_deg": 83.085,
      "mean_anomaly_deg": 277.0311,
      "mean_motion_rev_day": 15.08843823
    },
    {
      "epoch": "2026-04-20T10:05:02.914368Z",
      "apogee_km": 540.8500855969332,
      "perigee_km": 538.6483991214409,
      "latitude_deg": 5.230280439089072e-05,
      "longitude_deg": 92.01127550284386,
      "height_km": 540.6067021751272,
      "semi_major_axis_km": 6917.886242359187,
      "eccentricity": 0.00015913,
      "inclination_deg": 53.2165,
      "raan_deg": 91.7841,
      "arg_perigee_deg": 88.0312,
      "mean_anomaly_deg": 272.0863,
      "mean_motion_rev_day": 15.08838085
    },
    {
      "epoch": "2026-04-21T08:20:26.564352Z",
      "apogee_km": 540.8300495196645,
      "perigee_km": 538.649258083321,
      "latitude_deg": -1.5832683211622364e-05,
      "longitude_deg": 113.08593622108106,
      "height_km": 540.5521816963161,
      "semi_major_axis_km": 6917.8766538014925,
      "eccentricity": 0.00015762,
      "inclination_deg": 53.2165,
      "raan_deg": 87.6214,
      "arg_perigee_deg": 85.6455,
      "mean_anomaly_deg": 274.4717,
      "mean_motion_rev_day": 15.08841222
    },
    {
      "epoch": "2026-04-22T14:32:46.698720Z",
      "apogee_km": 540.8235361421421,
      "perigee_km": 538.6969745258511,
      "latitude_deg": 5.9022783603642015e-05,
      "longitude_deg": 13.111695877385761,
      "height_km": 540.5451812386863,
      "semi_major_axis_km": 6917.897255333996,
      "eccentricity": 0.0001537,
      "inclination_deg": 53.2169,
      "raan_deg": 81.9715,
      "arg_perigee_deg": 84.0358,
      "mean_anomaly_deg": 276.081,
      "mean_motion_rev_day": 15.08834482
    },
    {
      "epoch": "2026-04-23T06:26:38.269536Z",
      "apogee_km": 540.8553685646502,
      "perigee_km": 538.6589371711152,
      "latitude_deg": -3.0264542545413693e-05,
      "longitude_deg": 131.02085601727882,
      "height_km": 540.5608845500083,
      "semi_major_axis_km": 6917.894152867882,
      "eccentricity": 0.00015875,
      "inclination_deg": 53.2166,
      "raan_deg": 78.9985,
      "arg_perigee_deg": 85.2164,
      "mean_anomaly_deg": 274.9009,
      "mean_motion_rev_day": 15.08835497
    },
    {
      "epoch": "2026-04-24T06:17:25.497888Z",
      "apogee_km": 540.8496809517874,
      "perigee_km": 538.6650099174985,
      "latitude_deg": 1.5642780295870805e-05,
      "longitude_deg": 127.88456481766505,
      "height_km": 540.5956153277974,
      "semi_major_axis_km": 6917.894345434643,
      "eccentricity": 0.0001579,
      "inclination_deg": 53.2173,
      "raan_deg": 74.5383,
      "arg_perigee_deg": 87.0026,
      "mean_anomaly_deg": 273.1147,
      "mean_motion_rev_day": 15.08835434
    },
    {
      "epoch": "2026-04-25T14:05:07.746144Z",
      "apogee_km": 540.842376647448,
      "perigee_km": 538.6162072746938,
      "latitude_deg": 2.2627295710231454e-05,
      "longitude_deg": 3.7039578271329097,
      "height_km": 540.5223832732589,
      "semi_major_axis_km": 6917.866291961071,
      "eccentricity": 0.0001609,
      "inclination_deg": 53.2187,
      "raan_deg": 68.5895,
      "arg_perigee_deg": 84.7208,
      "mean_anomaly_deg": 275.3968,
      "mean_motion_rev_day": 15.08844612
    },
    {
      "epoch": "2026-04-26T13:55:54.932160Z",
      "apogee_km": 540.9060707595299,
      "perigee_km": 538.5609126628406,
      "latitude_deg": 7.073535793794115e-05,
      "longitude_deg": 0.5677469782635676,
      "height_km": 540.4522340493922,
      "semi_major_axis_km": 6917.870491711185,
      "eccentricity": 0.0001695,
      "inclination_deg": 53.219,
      "raan_deg": 64.1292,
      "arg_perigee_deg": 81.3337,
      "mean_anomaly_deg": 278.7848,
      "mean_motion_rev_day": 15.08843238
    },
    {
      "epoch": "2026-04-27T20:08:14.693280Z",
      "apogee_km": 540.8417491695582,
      "perigee_km": 538.6501638489362,
      "latitude_deg": -5.270781535629742e-05,
      "longitude_deg": -99.4048772398158,
      "height_km": 540.6381687955201,
      "semi_major_axis_km": 6917.882956509247,
      "eccentricity": 0.0001584,
      "inclination_deg": 53.2183,
      "raan_deg": 58.4795,
      "arg_perigee_deg": 89.8283,
      "mean_anomaly_deg": 270.289,
      "mean_motion_rev_day": 15.0883916
    }
  ]
}